1 32440U 99025DBC 18211.29324635 +.00000428 +00000-0 +50504-3 0  9996
2 32440 099.1446 233.6688 0364702 089.7689 274.5224 13.47551272239099
1 32441U 99025DBD 18181.49392774  .00000500  00000-0  27312-3 0  9996
2 32441  97.7952 275.9401 0298693 165.0014 196.0254 13.94980633565275
1 32443U 99025DBF 18212.88258273 +.00000470 +00000-0 +25746-3 0  9996
2 32443 102.1193 240.9881 0084232 045.2447 315.5530 14.17772569572490
1 32444U 99025DBG 18212.34114638  .00002254  00000-0  89777-3 0  9990
2 32444  99.1703 263.4707 0082417   2.4555 357.7012 14.27832233565567
1 32445U 99025DBH 18211.36620411  .00005116  00000-0  55449-3 0  9992
2 32445  99.3694   0.1121 0035258  87.8469 272.6780 14.88329442570559
1 32447U 99025DBK 18210.90714184 -.00000070 +00000-0 -18032-4 0  9998
2 32447 099.2044 237.3511 0079744 207.6298 274.2160 13.94785366573646
1 32448U 99025DBL 18185.19191153  .00002071  00000-0  64067-3 0  9995
2 32448  98.9805 311.1070 0019154 271.2114 211.0997 14.42312046558287
1 32449U 99025DBM 11068.68469795 +.00003586 +00000-0 +26030-2 0  9992
2 32449 099.2663 030.4816 0346132 208.1092 147.0464 13.72029686185387
1 32450U 99025DBN 18212.06111364  .00000493  00000-0  36367-3 0  9999
2 32450  99.0967 147.4134 0100223 179.9445 180.1745 13.97836525567325
1 32451U 99025DBP 18210.25570930 +.00000684 +00000-0 +68820-3 0  9998
2 32451 100.0113 027.5247 0215530 284.8977 072.8393 13.71751393247220
1 32453U 99025DBR 18207.20703882 +.00000408 +00000-0 +31242-3 0  9997
2 32453 099.4626 352.3461 0102516 329.1512 154.7812 13.97100128560918
1 32454U 99025DBS 18213.06726618  .00000911  00000-0  37552-3 0  9990
2 32454  98.5274 306.9710 0290532 310.9291  46.7053 14.08926327566618
1 32455U 99025DBT 18213.48837388  .00000702  00000-0  60157-3 0  9999
2 32455 101.7282  88.3067 0281346 171.9811 188.5968 13.74895355555310
1 32456U 99025DBU 18183.70286541 -.00000077 +00000-0 -78059-5 0  9999
2 32456 103.6615 116.0351 0395325 339.5205 019.0430 13.30313201535204
1 32457U 99025DBV 18213.32350220  .00000317  00000-0  51089-3 0  9995
2 32457 100.3232 254.8179 0436206 148.9437 213.8266 13.23508549536661
1 32458U 99025DBW 18212.75442477 +.00000387 +00000-0 +15031-3 0  9992
2 32458 099.0790 047.2225 0064583 046.7518 313.9031 14.34647222290306
1 32459U 99025DBX 18212.34358805  .00000193  00000-0  66404-4 0  9995
2 32459  98.5725 251.3302 0240656 289.7772  67.7608 14.32590372560014
1 32460U 99025DBY 18212.31592646 +.00000104 +00000-0 +10841-3 0  9992
2 32460 098.0315 346.2994 0197949 025.6808 335.4021 13.83109026279973
1 32461U 99025DBZ 18212.28062706  .00000214  00000-0  24216-3 0  9991
2 32461  98.3325  28.7507 0248324 108.4384  17.0791 13.66245399538546
1 32464U 99025DCC 18207.94071974 +.00000373 +00000-0 +73912-4 0  9992
2 32464 097.4509 101.1632 0205124 230.8843 127.3964 14.55147683213575
1 32467U 99057RB  18212.17500980 +.00000797 +00000-0 +17074-3 0  9991
2 32467 098.3847 198.6988 0008196 357.6129 002.5031 14.61431405261648
1 32468U 99057RC  18212.84791641 +.00002988 +00000-0 +31690-3 0  9996
2 32468 098.2643 236.1996 0008038 129.0696 231.1237 14.89885503233216
1 32469U 99057RD  12334.17014041 +.00010668 +00000-0 +28807-2 0  9993
2 32469 098.2276 307.8508 0010892 137.8300 225.3659 14.47955305274472
1 32470U 99057RE  18212.15179403 +.00001204 +00000-0 +23869-3 0  9998
2 32470 098.3549 198.3305 0003345 320.2397 039.8559 14.64090964582801
1 32473U 07042C   18212.43544464  .00000248  00000-0  72945-4 0  9995
2 32473  98.2385 285.3680 0111605 126.8048 234.3448 14.48284258561647
1 32474U 07042D   18212.64055417 +.00000345 +00000-0 +67337-4 0  9991
2 32474 098.6569 158.5837 0098896 308.9965 050.2461 14.67136805575413
1 32491U 06006AE  13320.37222416 +.00237901 +00000-0 +19370-1 0  9990
2 32491 051.4460 290.0775 3240588 236.8047 322.6474 08.82360017139311
1 32492U 06006AF  18020.95417419  .00000044  00000-0  62249-4 0  9998
2 32492  51.3619 216.9333 4979133 218.7071 339.3329  5.31555280210106
1 32493U 06006AG  18211.31792279 -.00000129  00000-0 -38732-4 0  9997
2 32493  51.6042 314.7509 5008076  21.1832 353.7966  5.44792110223260
1 32494U 06006AH  18203.10967455 -.00000017 +00000-0 +26391-4 0  9999
2 32494 051.6121 080.6253 5108141 283.8362 026.3348 05.25637319217991
1 32496U 06006AK  18181.21145522 +.00000012 +00000-0 +78768-4 0  9990
2 32496 051.7246 068.6328 5052182 282.4509 027.5028 05.35986754207271
1 32497U 06006AL  18065.46395795  .00000388  00000-0  45703-3 0  9996
2 32497  51.7043 134.2546 5054237 233.8777  68.2190  5.34364830202236
1 32498U 06006AM  17351.73456019  .00003767  00000-0  35438-2 0  9998
2 32498  51.6961 149.6245 4959895 225.1727  81.9343  5.51064894199382
1 32499U 06006AN  18210.60949655 +.00001104 +00000-0 +41650-3 0  9990
2 32499 051.6143 230.4480 4962949 074.6275 333.3853 05.60625740215397
1 32772U 82029F   18213.49522685  .00000035  00000-0  00000+0 0  9995
2 32772  72.9573 309.4129 4290960  69.5360   0.9565  1.93660576 82775
1 33395U 88033K   18213.18432093  .00000021  00000-0  22803-4 0  9992
2 33395  90.3683 287.7479 0191394  93.3735 297.1857 13.28430072473873
1 33458U 06053D   18192.82033108 -.00000052 +00000-0 +00000-0 0  9991
2 33458 006.5994 056.2615 0079587 332.6311 264.9982 01.00297841036335
1 33502U 99025DCF 18212.75462479 +.00000468 +00000-0 +32597-3 0  9993
2 33502 098.9940 134.2852 0106607 108.5155 280.6815 14.00736258491341
1 33503U 81053MT  18212.94498998 +.00000839 +00000-0 +18734-3 0  9991
2 33503 082.9601 201.3927 0015845 291.9226 068.0290 14.55713203502351
1 33525U 81071AA  14149.31037434  .00000269  00000-0  00000+0 0  9995
2 33525  67.2281  99.5562 5691543  93.5667 329.3781  1.97639952 79977
1 33536U 88081L   18212.60626209 -.00000156  00000-0  00000+0 0  9992
2 33536   6.7249  67.2361 6937389 230.6907  33.8938  2.15454964112814
1 33538U 88081N   18209.63084372 -.00000184 +00000-0 +15273-3 0  9995
2 33538 007.5285 007.5428 7202717 319.7100 009.7947 02.23549115105929
1 32172U 99025CTS 18210.02410811 +.00000375 +00000-0 +64001-4 0  9999
2 32172 099.0496 287.1633 0152412 124.6236 236.9447 14.68762318583730
1 32173U 99025CTT 18211.21602388  .00000623  00000-0  29614-3 0  9990
2 32173  99.6203 212.6555 0071575 229.4712 130.0215 14.22266275570501
1 32174U 99025CTU 18210.45133350 -.00000017 +00000-0 +12189-4 0  9992
2 32174 098.8250 292.0639 0159565 030.4855 330.5477 14.14755901568395
1 32175U 99025CTV 18210.48564564 -.00000048 +00000-0 -69897-5 0  9995
2 32175 098.8576 316.5477 0173115 060.1486 301.6749 13.81345495225584
1 32176U 99025CTW 18211.90050460 +.00000427 +00000-0 +14832-3 0  9995
2 32176 099.4171 258.6822 0064908 080.1048 280.7456 14.40058860224920
1 32177U 99025CTX 18211.75713521  .00000338  00000-0  13428-3 0  9994
2 32177  99.0747  46.5177 0074987  54.5765 306.2390 14.33914740578420
1 32178U 99025CTY 18211.99301489 +.00000310 +00000-0 +18785-3 0  9998
2 32178 100.2711 126.6671 0110818 067.4421 293.8429 14.12151957259332
1 32179U 99025CTZ 18211.99372428  .00000225  00000-0  16070-3 0  9990
2 32179  99.2401 228.3635 0148087  81.5278 312.2007 14.02090586564901
1 32180U 99025CUA 18211.37124788 +.00000021 +00000-0 +56643-4 0  9993
2 32180 099.4745 164.4099 0138337 091.3240 058.8807 13.81699253570815
1 32181U 99025CUB 18211.15294045 +.00000168 +00000-0 +66162-4 0  9993
2 32181 099.4738 323.5233 0094990 048.5522 071.7206 14.40867186578418
1 32182U 99025CUC 18203.81892642 +.00000995 +00000-0 +47919-3 0  9991
2 32182 098.2052 227.1635 0122114 309.2630 049.7762 14.16979360580075
1 32183U 99025CUD 18207.98063581 +.00000243 +00000-0 +17602-3 0  9998
2 32183 098.9685 281.6100 0045608 062.7824 297.7980 14.05220637348652
1 32184U 99025CUE 18210.43384048 +.00000349 +00000-0 +45965-4 0  9998
2 32184 098.2481 276.8980 0264305 029.8136 331.7831 14.65506866585923
1 32185U 99025CUF 18212.56844377 +.00000532 +00000-0 +11599-3 0  9990
2 32185 098.7345 335.3531 0481770 321.2263 035.5230 14.09069556565881
1 32186U 99025CUG 18212.16517569 -.00000093  00000-0 -37657-4 0  9995
2 32186  99.6578 188.5487 0284301 324.6807  94.6185 13.71851616552649
1 32187U 99025CUH 18210.98249948 +.00000035 +00000-0 +90371-4 0  9993
2 32187 099.3258 027.3399 0297959 045.2646 103.4636 13.48792297299432
